{"type": "FeatureCollection", "features": [{"type": "Feature", "properties": {"norad_id": 28054, "name": "DMSP 5D-3 F16 (USA 172)", "group": "weather", "lat": -45.218333679943385, "lon": 7.768966982616094, "alt_km": 846.5085655415287, "timestamp": "2025-12-07T03:52:32.112032+00:00", "meta": {"OBJECT_NAME": "DMSP 5D-3 F16 (USA 172)", "OBJECT_ID": "2003-048A", "EPOCH": "2025-12-06T15:01:14.863872", "MEAN_MOTION": 14.14420953, "ECCENTRICITY": 0.00067425, "INCLINATION": 99.0049, "RA_OF_ASC_NODE": 358.0347, "ARG_OF_PERICENTER": 339.694, "MEAN_ANOMALY": 128.6826, "EPHEMERIS_TYPE": 0, "CLASSIFICATION_TYPE": "U", "NORAD_CAT_ID": 28054, "ELEMENT_SET_NO": 999, "REV_AT_EPOCH": 14226, "BSTAR": 0.00016970468, "MEAN_MOTION_DOT": 2.79e-06, "MEAN_MOTION_DDOT": 0}, "tle": {"line1": "1 28054U 03048A   25340.62586648  .00000279  00000+0  16970-3 0  9996", "line2": "2 28054  99.0049 358.0347 0006742 339.6940 128.6826 14.14420953142266"}}, "geometry": {"type": "Point", "coordinates": [7.768966982616094, -45.218333679943385]}}, {"type": "Feature", "properties": {"norad_id": 28912, "name": "METEOSAT-9 (MSG-2)", "group": "weather", "lat": 7.401120585253972, "lon": -179.77856496232016, "alt_km": 35777.26940155425, "timestamp": "2025-12-07T03:52:32.112084+00:00", "meta": {"OBJECT_NAME": "METEOSAT-9 (MSG-2)", "OBJECT_ID": "2005-049B", "EPOCH": "2025-12-05T20:45:39.436128", "MEAN_MOTION": 1.00272635, "ECCENTRICITY": 0.00040045, "INCLINATION": 8.9234, "RA_OF_ASC_NODE": 56.0387, "ARG_OF_PERICENTER": 187.5839, "MEAN_ANOMALY": 188.3106, "EPHEMERIS_TYPE": 0, "CLASSIFICATION_TYPE": "U", "NORAD_CAT_ID": 28912, "ELEMENT_SET_NO": 999, "REV_AT_EPOCH": 506, "BSTAR": 0, "MEAN_MOTION_DOT": 1.28e-06, "MEAN_MOTION_DDOT": 0}, "tle": {"line1": "1 28912U 05049B   25339.86503977  .00000128  00000+0  00000+0 0  9996", "line2": "2 28912   8.9234  56.0387 0004004 187.5839 188.3106  1.00272635  5062"}}, "geometry": {"type": "Point", "coordinates": [-179.77856496232016, 7.401120585253972]}}, {"type": "Feature", "properties": {"norad_id": 29522, "name": "DMSP 5D-3 F17 (USA 191)", "group": "weather", "lat": -63.42993160390089, "lon": 148.75351544094693, "alt_km": 843.1037303415414, "timestamp": "2025-12-07T03:52:32.112104+00:00", "meta": {"OBJECT_NAME": "DMSP 5D-3 F17 (USA 191)", "OBJECT_ID": "2006-050A", "EPOCH": "2025-12-06T14:50:30.103008", "MEAN_MOTION": 14.1491567, "ECCENTRICITY": 0.00092291, "INCLINATION": 98.7393, "RA_OF_ASC_NODE": 346.1349, "ARG_OF_PERICENTER": 243.778, "MEAN_ANOMALY": 116.2445, "EPHEMERIS_TYPE": 0, "CLASSIFICATION_TYPE": "U", "NORAD_CAT_ID": 29522, "ELEMENT_SET_NO": 999, "REV_AT_EPOCH": 98518, "BSTAR": 0.00019143856, "MEAN_MOTION_DOT": 3.27e-06, "MEAN_MOTION_DDOT": 0}, "tle": {"line1": "1 29522U 06050A   25340.61840397  .00000327  00000+0  19144-3 0  9996", "line2": "2 29522  98.7393 346.1349 0009229 243.7780 116.2445 14.14915670985186"}}, "geometry": {"type": "Point", "coordinates": [148.75351544094693, -63.42993160390089]}}, {"type": "Feature", "properties": {"norad_id": 32958, "name": "FENGYUN 3A", "group": "weather", "lat": -45.94213044622051, "lon": 91.73450663901507, "alt_km": 834.883794931312, "timestamp": "2025-12-07T03:52:32.112128+00:00", "meta": {"OBJECT_NAME": "FENGYUN 3A", "OBJECT_ID": "2008-026A", "EPOCH": "2025-12-06T13:16:39.068544", "MEAN_MOTION": 14.195116, "ECCENTRICITY": 0.00081907, "INCLINATION": 98.6688, "RA_OF_ASC_NODE": 280.2105, "ARG_OF_PERICENTER": 329.7021, "MEAN_ANOMALY": 30.3681, "EPHEMERIS_TYPE": 0, "CLASSIFICATION_TYPE": "U", "NORAD_CAT_ID": 32958, "ELEMENT_SET_NO": 999, "REV_AT_EPOCH": 90807, "BSTAR": 0.00013749958, "MEAN_MOTION_DOT": 2.47e-06, "MEAN_MOTION_DDOT": 0}, "tle": {"line1": "1 32958U 08026A   25340.55322996  .00000247  00000+0  13750-3 0  9999", "line2": "2 32958  98.6688 280.2105 0008190 329.7021  30.3681 14.19511600908077"}}, "geometry": {"type": "Point", "coordinates": [91.73450663901507, -45.94213044622051]}}, {"type": "Feature", "properties": {"norad_id": 35491, "name": "GOES 14", "group": "weather", "lat": -1.0009579410660068, "lon": 26.03209382691218, "alt_km": 35800.75622409435, "timestamp": "2025-12-07T03:52:32.112145+00:00", "meta": {"OBJECT_NAME": "GOES 14", "OBJECT_ID": "2009-033A", "EPOCH": "2025-12-06T11:26:17.377728", "MEAN_MOTION": 1.00272854, "ECCENTRICITY": 0.00041746, "INCLINATION": 1.1822, "RA_OF_ASC_NODE": 85.48, "ARG_OF_PERICENTER": 153.1779, "MEAN_ANOMALY": 260.1109, "EPHEMERIS_TYPE": 0, "CLASSIFICATION_TYPE": "U", "NORAD_CAT_ID": 35491, "ELEMENT_SET_NO": 999, "REV_AT_EPOCH": 466, "BSTAR": 0, "MEAN_MOTION_DOT": -6.1e-07, "MEAN_MOTION_DDOT": 0}, "tle": {"line1": "1 35491U 09033A   25340.47659002 -.00000061  00000+0  00000+0 0  9990", "line2": "2 35491   1.1822  85.4800 0004174 153.1779 260.1109  1.00272854  4666"}}, "geometry": {"type": "Point", "coordinates": [26.03209382691218, -1.0009579410660068]}}, {"type": "Feature", "properties": {"norad_id": 35951, "name": "DMSP 5D-3 F18 (USA 210)", "group": "weather", "lat": 63.33418408907997, "lon": 155.73396921570333, "alt_km": 830.0048848597844, "timestamp": "2025-12-07T03:52:32.112158+00:00", "meta": {"OBJECT_NAME": "DMSP 5D-3 F18 (USA 210)", "OBJECT_ID": "2009-057A", "EPOCH": "2025-12-06T13:45:19.077408", "MEAN_MOTION": 14.14763551, "ECCENTRICITY": 0.00121228, "INCLINATION": 98.8827, "RA_OF_ASC_NODE": 317.005, "ARG_OF_PERICENTER": 78.7782, "MEAN_ANOMALY": 281.4753, "EPHEMERIS_TYPE": 0, "CLASSIFICATION_TYPE": "U", "NORAD_CAT_ID": 35951, "ELEMENT_SET_NO": 999, "REV_AT_EPOCH": 83235, "BSTAR": 0.00024416455, "MEAN_MOTION_DOT": 4.26e-06, "MEAN_MOTION_DDOT": 0}, "tle": {"line1": "1 35951U 09057A   25340.57313747  .00000426  00000+0  24416-3 0  9996", "line2": "2 35951  98.8827 317.0050 0012122  78.7782 281.4753 14.14763551832358"}}, "geometry": {"type": "Point", "coordinates": [155.73396921570333, 63.33418408907997]}}, {"type": "Feature", "properties": {"norad_id": 36411, "name": "EWS-G2 (GOES 15)", "group": "weather", "lat": 0.7372522911764814, "lon": -164.28636174261513, "alt_km": 35775.19416281351, "timestamp": "2025-12-07T03:52:32.112172+00:00", "meta": {"OBJECT_NAME": "EWS-G2 (GOES 15)", "OBJECT_ID": "2010-008A", "EPOCH": "2025-12-06T12:14:42.741024", "MEAN_MOTION": 1.00268312, "ECCENTRICITY": 0.00060223, "INCLINATION": 0.7979, "RA_OF_ASC_NODE": 86.032, "ARG_OF_PERICENTER": 172.3664, "MEAN_ANOMALY": 62.2929, "EPHEMERIS_TYPE": 0, "CLASSIFICATION_TYPE": "U", "NORAD_CAT_ID": 36411, "ELEMENT_SET_NO": 999, "REV_AT_EPOCH": 5770, "BSTAR": 0, "MEAN_MOTION_DOT": 4.5e-07, "MEAN_MOTION_DDOT": 0}, "tle": {"line1": "1 36411U 10008A   25340.51021691  .00000045  00000+0  00000+0 0  9990", "line2": "2 36411   0.7979  86.0320 0006022 172.3664  62.2929  1.00268312 57709"}}, "geometry": {"type": "Point", "coordinates": [-164.28636174261513, 0.7372522911764814]}}, {"type": "Feature", "properties": {"norad_id": 36744, "name": "COMS 1", "group": "weather", "lat": -0.3593160370492555, "lon": -97.5194396327439, "alt_km": 35781.29511951809, "timestamp": "2025-12-07T03:52:32.112185+00:00", "meta": {"OBJECT_NAME": "COMS 1", "OBJECT_ID": "2010-032A", "EPOCH": "2025-12-06T12:33:48.411072", "MEAN_MOTION": 1.00271559, "ECCENTRICITY": 0.00011837, "INCLINATION": 4.3257, "RA_OF_ASC_NODE": 78.0667, "ARG_OF_PERICENTER": 188.9536, "MEAN_ANOMALY": 125.1658, "EPHEMERIS_TYPE": 0, "CLASSIFICATION_TYPE": "U", "NORAD_CAT_ID": 36744, "ELEMENT_SET_NO": 999, "REV_AT_EPOCH": 4915, "BSTAR": 0, "MEAN_MOTION_DOT": -3.39e-06, "MEAN_MOTION_DDOT": 0}, "tle": {"line1": "1 36744U 10032A   25340.52347698 -.00000339  00000+0  00000+0 0  9992", "line2": "2 36744   4.3257  78.0667 0001183 188.9536 125.1658  1.00271559 49151"}}, "geometry": {"type": "Point", "coordinates": [-97.5194396327439, -0.3593160370492555]}}, {"type": "Feature", "properties": {"norad_id": 37214, "name": "FENGYUN 3B", "group": "weather", "lat": 76.12379856311341, "lon": -18.76346788530381, "alt_km": 829.1922254349647, "timestamp": "2025-12-07T03:52:32.112197+00:00", "meta": {"OBJECT_NAME": "FENGYUN 3B", "OBJECT_ID": "2010-059A", "EPOCH": "2025-12-06T16:07:43.895712", "MEAN_MOTION": 14.14787254, "ECCENTRICITY": 0.00222944, "INCLINATION": 98.9918, "RA_OF_ASC_NODE": 20.6068, "ARG_OF_PERICENTER": 14.9112, "MEAN_ANOMALY": 92.7854, "EPHEMERIS_TYPE": 0, "CLASSIFICATION_TYPE": "U", "NORAD_CAT_ID": 37214, "ELEMENT_SET_NO": 999, "REV_AT_EPOCH": 78020, "BSTAR": 0.00013154779, "MEAN_MOTION_DOT": 2.09e-06, "MEAN_MOTION_DDOT": 0}, "tle": {"line1": "1 37214U 10059A   25340.67203583  .00000209  00000+0  13155-3 0  9998", "line2": "2 37214  98.9918  20.6068 0022294  14.9112  92.7854 14.14787254780207"}}, "geometry": {"type": "Point", "coordinates": [-18.76346788530381, 76.12379856311341]}}, {"type": "Feature", "properties": {"norad_id": 37849, "name": "SUOMI NPP", "group": "weather", "lat": -5.398844335931941, "lon": 97.71690137162403, "alt_km": 829.7730224562883, "timestamp": "2025-12-07T03:52:32.112231+00:00", "meta": {"OBJECT_NAME": "SUOMI NPP", "OBJECT_ID": "2011-061A", "EPOCH": "2025-12-06T15:09:49.132224", "MEAN_MOTION": 14.19511541, "ECCENTRICITY": 0.00020303, "INCLINATION": 98.7764, "RA_OF_ASC_NODE": 278.0287, "ARG_OF_PERICENTER": 130.9387, "MEAN_ANOMALY": 229.1965, "EPHEMERIS_TYPE": 0, "CLASSIFICATION_TYPE": "U", "NORAD_CAT_ID": 37849, "ELEMENT_SET_NO": 999, "REV_AT_EPOCH": 73112, "BSTAR": 0.000122142, "MEAN_MOTION_DOT": 2.13e-06, "MEAN_MOTION_DDOT": 0}, "tle": {"line1": "1 37849U 11061A   25340.63181866  .00000213  00000+0  12214-3 0  9991", "line2": "2 37849  98.7764 278.0287 0002030 130.9387 229.1965 14.19511541731124"}}, "geometry": {"type": "Point", "coordinates": [97.71690137162403, -5.398844335931941]}}]}